[{"OBJECT_NAME":"STARLINK-32771","OBJECT_ID":"2025-006V","EPOCH":"2026-03-09T00:33:15.346656","MEAN_MOTION":15.27570328,"ECCENTRICITY":0.00017335,"INCLINATION":43.0037,"RA_OF_ASC_NODE":296.083,"ARG_OF_PERICENTER":261.5272,"MEAN_ANOMALY":98.5383,"EPHEMERIS_TYPE":0,"CLASSIFICATION_TYPE":"U","NORAD_CAT_ID":62573,"ELEMENT_SET_NO":999,"REV_AT_EPOCH":6476,"BSTAR":0.001877295,"MEAN_MOTION_DOT":0.00051745,"MEAN_MOTION_DDOT":0},{"OBJECT_NAME":"OBJECT J","OBJECT_ID":"2026-023J","EPOCH":"2026-03-09T17:10:35.014656","MEAN_MOTION":15.23262782,"ECCENTRICITY":0.00239883,"INCLINATION":96.6344,"RA_OF_ASC_NODE":144.1739,"ARG_OF_PERICENTER":114.5009,"MEAN_ANOMALY":245.8735,"EPHEMERIS_TYPE":0,"CLASSIFICATION_TYPE":"U","NORAD_CAT_ID":67682,"ELEMENT_SET_NO":999,"REV_AT_EPOCH":484,"BSTAR":0.00057379131,"MEAN_MOTION_DOT":0.00013658,"MEAN_MOTION_DDOT":0}]
